CCSDS_OMM_VERS = 2.0
CREATION_DATE  = 
ORIGINATOR     = 

OBJECT_NAME    = UNKNOWN
OBJECT_ID      = 
CENTER_NAME    = EARTH
REF_FRAME      = TEME
TIME_SYSTEM    = UTC
MEAN_ELEMENT_THEORY = SGP/SGP4

EPOCH          = 2026-02-05T12:01:48.839808
MEAN_MOTION    = 14.76365235
ECCENTRICITY   = .00187695
INCLINATION    = 86.3283
RA_OF_ASC_NODE = 311.2353
ARG_OF_PERICENTER = 63.2178
MEAN_ANOMALY   = 297.0958

EPHEMERIS_TYPE = 0
CLASSIFICATION_TYPE = U
NORAD_CAT_ID   = 270127
ELEMENT_SET_NO = 999
REV_AT_EPOCH   = 32879
BSTAR          = .22618199E-2
MEAN_MOTION_DOT = .15791E-3
MEAN_MOTION_DDOT = 0

CCSDS_OMM_VERS = 2.0
CREATION_DATE  = 
ORIGINATOR     = 

OBJECT_NAME    = UNKNOWN
OBJECT_ID      = 
CENTER_NAME    = EARTH
REF_FRAME      = TEME
TIME_SYSTEM    = UTC
MEAN_ELEMENT_THEORY = SGP/SGP4

EPOCH          = 2026-02-02T17:09:44.249472
MEAN_MOTION    = 12.33811436
ECCENTRICITY   = .00465893
INCLINATION    = 102.4365
RA_OF_ASC_NODE = 39.8512
ARG_OF_PERICENTER = 146.0917
MEAN_ANOMALY   = 214.3134

EPHEMERIS_TYPE = 0
CLASSIFICATION_TYPE = U
NORAD_CAT_ID   = 270128
ELEMENT_SET_NO = 999
REV_AT_EPOCH   = 27864
BSTAR          = .31228184E-3
MEAN_MOTION_DOT = -.7E-7
MEAN_MOTION_DDOT = 0

CCSDS_OMM_VERS = 2.0
CREATION_DATE  = 
ORIGINATOR     = 

OBJECT_NAME    = UNKNOWN
OBJECT_ID      = 
CENTER_NAME    = EARTH
REF_FRAME      = TEME
TIME_SYSTEM    = UTC
MEAN_ELEMENT_THEORY = SGP/SGP4

EPOCH          = 2026-01-26T04:44:10.100832
MEAN_MOTION    = 12.98627331
ECCENTRICITY   = .00314859
INCLINATION    = 90.2405
RA_OF_ASC_NODE = 5.4018
ARG_OF_PERICENTER = 84.1697
MEAN_ANOMALY   = 276.3013

EPHEMERIS_TYPE = 0
CLASSIFICATION_TYPE = U
NORAD_CAT_ID   = 270129
ELEMENT_SET_NO = 999
REV_AT_EPOCH   = 29148
BSTAR          = -.8427628E-3
MEAN_MOTION_DOT = -.241E-5
MEAN_MOTION_DDOT = 0

CCSDS_OMM_VERS = 2.0
CREATION_DATE  = 
ORIGINATOR     = 

OBJECT_NAME    = UNKNOWN
OBJECT_ID      = 
CENTER_NAME    = EARTH
REF_FRAME      = TEME
TIME_SYSTEM    = UTC
MEAN_ELEMENT_THEORY = SGP/SGP4

EPOCH          = 2026-02-23T04:44:56.028480
MEAN_MOTION    = 4.52464723
ECCENTRICITY   = .54080739
INCLINATION    = 63.1264
RA_OF_ASC_NODE = 123.7145
ARG_OF_PERICENTER = 348.3826
MEAN_ANOMALY   = 2.9880

EPHEMERIS_TYPE = 0
CLASSIFICATION_TYPE = U
NORAD_CAT_ID   = 270131
ELEMENT_SET_NO = 999
REV_AT_EPOCH   = 10319
BSTAR          = -.64320823E-3
MEAN_MOTION_DOT = -.88E-6
MEAN_MOTION_DDOT = 0

CCSDS_OMM_VERS = 2.0
CREATION_DATE  = 
ORIGINATOR     = 

OBJECT_NAME    = UNKNOWN
OBJECT_ID      = 
CENTER_NAME    = EARTH
REF_FRAME      = TEME
TIME_SYSTEM    = UTC
MEAN_ELEMENT_THEORY = SGP/SGP4

EPOCH          = 2026-02-02T12:28:43.641984
MEAN_MOTION    = 12.29535179
ECCENTRICITY   = .06756013
INCLINATION    = 66.0632
RA_OF_ASC_NODE = 325.1714
ARG_OF_PERICENTER = 198.5126
MEAN_ANOMALY   = 159.0160

EPHEMERIS_TYPE = 0
CLASSIFICATION_TYPE = U
NORAD_CAT_ID   = 270134
ELEMENT_SET_NO = 999
REV_AT_EPOCH   = 27763
BSTAR          = -.6622626E-4
MEAN_MOTION_DOT = -.7E-6
MEAN_MOTION_DDOT = 0

CCSDS_OMM_VERS = 2.0
CREATION_DATE  = 
ORIGINATOR     = 

OBJECT_NAME    = UNKNOWN
OBJECT_ID      = 
CENTER_NAME    = EARTH
REF_FRAME      = TEME
TIME_SYSTEM    = UTC
MEAN_ELEMENT_THEORY = SGP/SGP4

EPOCH          = 2026-01-27T05:13:06.368448
MEAN_MOTION    = 13.02402883
ECCENTRICITY   = .00283055
INCLINATION    = 90.2424
RA_OF_ASC_NODE = 2.0310
ARG_OF_PERICENTER = 342.1814
MEAN_ANOMALY   = 17.8315

EPHEMERIS_TYPE = 0
CLASSIFICATION_TYPE = U
NORAD_CAT_ID   = 270136
ELEMENT_SET_NO = 999
REV_AT_EPOCH   = 29268
BSTAR          = .46851806E-2
MEAN_MOTION_DOT = .1469E-4
MEAN_MOTION_DDOT = 0

CCSDS_OMM_VERS = 2.0
CREATION_DATE  = 
ORIGINATOR     = 

OBJECT_NAME    = UNKNOWN
OBJECT_ID      = 
CENTER_NAME    = EARTH
REF_FRAME      = TEME
TIME_SYSTEM    = UTC
MEAN_ELEMENT_THEORY = SGP/SGP4

EPOCH          = 2026-01-31T13:15:43.341408
MEAN_MOTION    = 12.12981249
ECCENTRICITY   = .03106774
INCLINATION    = 100.9902
RA_OF_ASC_NODE = 150.3162
ARG_OF_PERICENTER = 181.6005
MEAN_ANOMALY   = 178.4075

EPHEMERIS_TYPE = 0
CLASSIFICATION_TYPE = U
NORAD_CAT_ID   = 270137
ELEMENT_SET_NO = 999
REV_AT_EPOCH   = 27371
BSTAR          = -.11181028E-2
MEAN_MOTION_DOT = -.159E-5
MEAN_MOTION_DDOT = 0

CCSDS_OMM_VERS = 2.0
CREATION_DATE  = 
ORIGINATOR     = 

OBJECT_NAME    = UNKNOWN
OBJECT_ID      = 
CENTER_NAME    = EARTH
REF_FRAME      = TEME
TIME_SYSTEM    = UTC
MEAN_ELEMENT_THEORY = SGP/SGP4

EPOCH          = 2026-01-31T23:38:11.680224
MEAN_MOTION    = 14.93238206
ECCENTRICITY   = .0009664
INCLINATION    = 97.8171
RA_OF_ASC_NODE = 123.3774
ARG_OF_PERICENTER = 188.2779
MEAN_ANOMALY   = 171.8282

EPHEMERIS_TYPE = 0
CLASSIFICATION_TYPE = U
NORAD_CAT_ID   = 270138
ELEMENT_SET_NO = 999
REV_AT_EPOCH   = 33470
BSTAR          = .37470934E-3
MEAN_MOTION_DOT = .3865E-4
MEAN_MOTION_DDOT = 0

CCSDS_OMM_VERS = 2.0
CREATION_DATE  = 
ORIGINATOR     = 

OBJECT_NAME    = UNKNOWN
OBJECT_ID      = 
CENTER_NAME    = EARTH
REF_FRAME      = TEME
TIME_SYSTEM    = UTC
MEAN_ELEMENT_THEORY = SGP/SGP4

EPOCH          = 2026-02-01T12:05:58.692192
MEAN_MOTION    = 12.51230711
ECCENTRICITY   = .07760515
INCLINATION    = 99.4317
RA_OF_ASC_NODE = 122.6922
ARG_OF_PERICENTER = 324.1396
MEAN_ANOMALY   = 30.9875

EPHEMERIS_TYPE = 0
CLASSIFICATION_TYPE = U
NORAD_CAT_ID   = 270140
ELEMENT_SET_NO = 999
REV_AT_EPOCH   = 28143
BSTAR          = .41559919E-2
MEAN_MOTION_DOT = .1921E-4
MEAN_MOTION_DDOT = 0

CCSDS_OMM_VERS = 2.0
CREATION_DATE  = 
ORIGINATOR     = 

OBJECT_NAME    = UNKNOWN
OBJECT_ID      = 
CENTER_NAME    = EARTH
REF_FRAME      = TEME
TIME_SYSTEM    = UTC
MEAN_ELEMENT_THEORY = SGP/SGP4

EPOCH          = 2026-02-24T01:47:05.297568
MEAN_MOTION    = 12.42204539
ECCENTRICITY   = .00260205
INCLINATION    = 73.6119
RA_OF_ASC_NODE = 182.1433
ARG_OF_PERICENTER = 8.8944
MEAN_ANOMALY   = 351.2556

EPHEMERIS_TYPE = 0
CLASSIFICATION_TYPE = U
NORAD_CAT_ID   = 270141
ELEMENT_SET_NO = 999
REV_AT_EPOCH   = 28320
BSTAR          = .32391147E-3
MEAN_MOTION_DOT = .27E-6
MEAN_MOTION_DDOT = 0

CCSDS_OMM_VERS = 2.0
CREATION_DATE  = 
ORIGINATOR     = 

OBJECT_NAME    = UNKNOWN
OBJECT_ID      = 
CENTER_NAME    = EARTH
REF_FRAME      = TEME
TIME_SYSTEM    = UTC
MEAN_ELEMENT_THEORY = SGP/SGP4

EPOCH          = 2026-01-29T05:02:43.111680
MEAN_MOTION    = 13.06082740
ECCENTRICITY   = .003153
INCLINATION    = 90.3091
RA_OF_ASC_NODE = 11.7467
ARG_OF_PERICENTER = 86.8841
MEAN_ANOMALY   = 273.5891

EPHEMERIS_TYPE = 0
CLASSIFICATION_TYPE = U
NORAD_CAT_ID   = 270149
ELEMENT_SET_NO = 999
REV_AT_EPOCH   = 29322
BSTAR          = -.1465033E-2
MEAN_MOTION_DOT = -.474E-5
MEAN_MOTION_DDOT = 0

CCSDS_OMM_VERS = 2.0
CREATION_DATE  = 
ORIGINATOR     = 

OBJECT_NAME    = UNKNOWN
OBJECT_ID      = 
CENTER_NAME    = EARTH
REF_FRAME      = TEME
TIME_SYSTEM    = UTC
MEAN_ELEMENT_THEORY = SGP/SGP4

EPOCH          = 2026-02-23T09:24:21.919968
MEAN_MOTION    = 12.98959332
ECCENTRICITY   = .00369091
INCLINATION    = 90.3092
RA_OF_ASC_NODE = 40.2655
ARG_OF_PERICENTER = 288.4472
MEAN_ANOMALY   = 71.2639

EPHEMERIS_TYPE = 0
CLASSIFICATION_TYPE = U
NORAD_CAT_ID   = 270152
ELEMENT_SET_NO = 999
REV_AT_EPOCH   = 29583
BSTAR          = .16606863E-2
MEAN_MOTION_DOT = .501E-5
MEAN_MOTION_DDOT = 0

CCSDS_OMM_VERS = 2.0
CREATION_DATE  = 
ORIGINATOR     = 

OBJECT_NAME    = UNKNOWN
OBJECT_ID      = 
CENTER_NAME    = EARTH
REF_FRAME      = TEME
TIME_SYSTEM    = UTC
MEAN_ELEMENT_THEORY = SGP/SGP4

EPOCH          = 2026-02-04T12:32:29.407776
MEAN_MOTION    = 12.30496017
ECCENTRICITY   = .07446098
INCLINATION    = 83.2095
RA_OF_ASC_NODE = 129.1902
ARG_OF_PERICENTER = 267.1173
MEAN_ANOMALY   = 84.4531

EPHEMERIS_TYPE = 0
CLASSIFICATION_TYPE = U
NORAD_CAT_ID   = 270153
ELEMENT_SET_NO = 999
REV_AT_EPOCH   = 27747
BSTAR          = .88098958E-2
MEAN_MOTION_DOT = .2635E-4
MEAN_MOTION_DDOT = 0

CCSDS_OMM_VERS = 2.0
CREATION_DATE  = 
ORIGINATOR     = 

OBJECT_NAME    = UNKNOWN
OBJECT_ID      = 
CENTER_NAME    = EARTH
REF_FRAME      = TEME
TIME_SYSTEM    = UTC
MEAN_ELEMENT_THEORY = SGP/SGP4

EPOCH          = 2026-02-21T19:37:52.801536
MEAN_MOTION    = 12.54980098
ECCENTRICITY   = .00707649
INCLINATION    = 101.9290
RA_OF_ASC_NODE = 276.7310
ARG_OF_PERICENTER = 282.9476
MEAN_ANOMALY   = 76.3700

EPHEMERIS_TYPE = 0
CLASSIFICATION_TYPE = U
NORAD_CAT_ID   = 270155
ELEMENT_SET_NO = 999
REV_AT_EPOCH   = 28567
BSTAR          = .19927052E-2
MEAN_MOTION_DOT = .28E-5
MEAN_MOTION_DDOT = 0

CCSDS_OMM_VERS = 2.0
CREATION_DATE  = 
ORIGINATOR     = 

OBJECT_NAME    = UNKNOWN
OBJECT_ID      = 
CENTER_NAME    = EARTH
REF_FRAME      = TEME
TIME_SYSTEM    = UTC
MEAN_ELEMENT_THEORY = SGP/SGP4

EPOCH          = 2026-02-03T04:56:41.203680
MEAN_MOTION    = 13.04422383
ECCENTRICITY   = .00204892
INCLINATION    = 90.2221
RA_OF_ASC_NODE = 15.4320
ARG_OF_PERICENTER = 160.0948
MEAN_ANOMALY   = 200.0980

EPHEMERIS_TYPE = 0
CLASSIFICATION_TYPE = U
NORAD_CAT_ID   = 270156
ELEMENT_SET_NO = 999
REV_AT_EPOCH   = 29311
BSTAR          = -.20007142E-2
MEAN_MOTION_DOT = -.634E-5
MEAN_MOTION_DDOT = 0

CCSDS_OMM_VERS = 2.0
CREATION_DATE  = 
ORIGINATOR     = 

OBJECT_NAME    = UNKNOWN
OBJECT_ID      = 
CENTER_NAME    = EARTH
REF_FRAME      = TEME
TIME_SYSTEM    = UTC
MEAN_ELEMENT_THEORY = SGP/SGP4

EPOCH          = 2026-01-29T22:06:21.444192
MEAN_MOTION    = 12.76088210
ECCENTRICITY   = .09800511
INCLINATION    = 65.8252
RA_OF_ASC_NODE = 108.0154
ARG_OF_PERICENTER = 210.7749
MEAN_ANOMALY   = 143.2131

EPHEMERIS_TYPE = 0
CLASSIFICATION_TYPE = U
NORAD_CAT_ID   = 270157
ELEMENT_SET_NO = 999
REV_AT_EPOCH   = 28672
BSTAR          = .91484225E-3
MEAN_MOTION_DOT = .1521E-4
MEAN_MOTION_DDOT = 0

